{
  "type": "FeatureCollection",
  "features": [
    {
      "type": "Feature",
      "properties": {
        "norad_id": 34314,
        "name": "COSMOS 2251 DEB",
        "group": "cosmos-2251-debris",
        "lat": -55.46220401341593,
        "lon": -59.38335417420969,
        "alt_km": 890.2221437748958,
        "timestamp": "2025-12-03T06:58:43.635977+00:00",
        "meta_object_name": "COSMOS 2251 DEB",
        "meta_object_id": "1993-036NL",
        "meta_epoch": "2025-12-02T17:57:47.960928",
        "meta_mean_motion": 14.17382333,
        "meta_eccentricity": 0.0102524,
        "meta_inclination": 74.0053,
        "meta_ra_of_asc_node": 326.2134,
        "meta_arg_of_pericenter": 74.446,
        "meta_mean_anomaly": 341.4198,
        "meta_ephemeris_type": 0,
        "meta_classification_type": "U",
        "meta_norad_cat_id": 34314,
        "meta_element_set_no": 999,
        "meta_rev_at_epoch": 86516,
        "meta_bstar": 0.00075364,
        "meta_mean_motion_dot": 1.582e-05,
        "meta_mean_motion_ddot": 0,
        "tle_line1": "1 34314U 93036NL  25336.74847177  .00001582  00000+0  75364-3 0  9993",
        "tle_line2": "2 34314  74.0053 326.2134 0102524  74.4460 341.4198 14.17382333865167"
      },
      "geometry": {
        "type": "Point",
        "coordinates": [
          -59.38335417420969,
          -55.46220401341593
        ]
      }
    },
    {
      "type": "Feature",
      "properties": {
        "norad_id": 34316,
        "name": "COSMOS 2251 DEB",
        "group": "cosmos-2251-debris",
        "lat": 45.66451060163309,
        "lon": 158.8106326296056,
        "alt_km": 585.5962316106315,
        "timestamp": "2025-12-03T06:58:43.635988+00:00",
        "meta_object_name": "COSMOS 2251 DEB",
        "meta_object_id": "1993-036NN",
        "meta_epoch": "2025-12-02T11:04:14.633472",
        "meta_mean_motion": 14.91333968,
        "meta_eccentricity": 0.00078318,
        "meta_inclination": 74.0655,
        "meta_ra_of_asc_node": 357.4723,
        "meta_arg_of_pericenter": 87.8218,
        "meta_mean_anomaly": 272.3861,
        "meta_ephemeris_type": 0,
        "meta_classification_type": "U",
        "meta_norad_cat_id": 34316,
        "meta_element_set_no": 999,
        "meta_rev_at_epoch": 89056,
        "meta_bstar": 0.0018346533,
        "meta_mean_motion_dot": 0.00018316,
        "meta_mean_motion_ddot": 0,
        "tle_line1": "1 34316U 93036NN  25336.46128048  .00018316  00000+0  18347-2 0  9993",
        "tle_line2": "2 34316  74.0655 357.4723 0007831  87.8218 272.3861 14.91333968890564"
      },
      "geometry": {
        "type": "Point",
        "coordinates": [
          158.8106326296056,
          45.66451060163309
        ]
      }
    },
    {
      "type": "Feature",
      "properties": {
        "norad_id": 34317,
        "name": "COSMOS 2251 DEB",
        "group": "cosmos-2251-debris",
        "lat": -35.05718923154488,
        "lon": -117.01433989330057,
        "alt_km": 1270.3760887845747,
        "timestamp": "2025-12-03T06:58:43.635998+00:00",
        "meta_object_name": "COSMOS 2251 DEB",
        "meta_object_id": "1993-036NP",
        "meta_epoch": "2025-12-02T14:39:01.920960",
        "meta_mean_motion": 13.65108813,
        "meta_eccentricity": 0.03362679,
        "meta_inclination": 73.925,
        "meta_ra_of_asc_node": 52.4322,
        "meta_arg_of_pericenter": 43.6766,
        "meta_mean_anomaly": 70.3138,
        "meta_ephemeris_type": 0,
        "meta_classification_type": "U",
        "meta_norad_cat_id": 34317,
        "meta_element_set_no": 999,
        "meta_rev_at_epoch": 83481,
        "meta_bstar": 0.00048244094,
        "meta_mean_motion_dot": 5.54e-06,
        "meta_mean_motion_ddot": 0,
        "tle_line1": "1 34317U 93036NP  25336.61043890  .00000554  00000+0  48244-3 0  9997",
        "tle_line2": "2 34317  73.9250  52.4322 0336267  43.6766  70.3138 13.65108813834815"
      },
      "geometry": {
        "type": "Point",
        "coordinates": [
          -117.01433989330057,
          -35.05718923154488
        ]
      }
    },
    {
      "type": "Feature",
      "properties": {
        "norad_id": 34321,
        "name": "COSMOS 2251 DEB",
        "group": "cosmos-2251-debris",
        "lat": -67.53404871218122,
        "lon": 37.95104932581651,
        "alt_km": 725.4631628325651,
        "timestamp": "2025-12-03T06:58:43.636008+00:00",
        "meta_object_name": "COSMOS 2251 DEB",
        "meta_object_id": "1993-036NT",
        "meta_epoch": "2025-12-02T19:58:32.630304",
        "meta_mean_motion": 14.49987168,
        "meta_eccentricity": 0.0015616,
        "meta_inclination": 74.0277,
        "meta_ra_of_asc_node": 174.9743,
        "meta_arg_of_pericenter": 305.0879,
        "meta_mean_anomaly": 76.843,
        "meta_ephemeris_type": 0,
        "meta_classification_type": "U",
        "meta_norad_cat_id": 34321,
        "meta_element_set_no": 999,
        "meta_rev_at_epoch": 88343,
        "meta_bstar": 0.00068373,
        "meta_mean_motion_dot": 2.624e-05,
        "meta_mean_motion_ddot": 0,
        "tle_line1": "1 34321U 93036NT  25336.83232211  .00002624  00000+0  68373-3 0  9998",
        "tle_line2": "2 34321  74.0277 174.9743 0015616 305.0879  76.8430 14.49987168883439"
      },
      "geometry": {
        "type": "Point",
        "coordinates": [
          37.95104932581651,
          -67.53404871218122
        ]
      }
    },
    {
      "type": "Feature",
      "properties": {
        "norad_id": 34323,
        "name": "COSMOS 2251 DEB",
        "group": "cosmos-2251-debris",
        "lat": 10.899967979333177,
        "lon": -41.527994311499214,
        "alt_km": 609.2492782947766,
        "timestamp": "2025-12-03T06:58:43.636019+00:00",
        "meta_object_name": "COSMOS 2251 DEB",
        "meta_object_id": "1993-036NV",
        "meta_epoch": "2025-12-02T20:58:30.379008",
        "meta_mean_motion": 14.73873065,
        "meta_eccentricity": 0.0061074,
        "meta_inclination": 73.9521,
        "meta_ra_of_asc_node": 142.4665,
        "meta_arg_of_pericenter": 188.6918,
        "meta_mean_anomaly": 289.3533,
        "meta_ephemeris_type": 0,
        "meta_classification_type": "U",
        "meta_norad_cat_id": 34323,
        "meta_element_set_no": 999,
        "meta_rev_at_epoch": 88294,
        "meta_bstar": 0.0034889,
        "meta_mean_motion_dot": 0.00023608,
        "meta_mean_motion_ddot": 0,
        "tle_line1": "1 34323U 93036NV  25336.87396272  .00023608  00000+0  34889-2 0  9991",
        "tle_line2": "2 34323  73.9521 142.4665 0061074 188.6918 289.3533 14.73873065882949"
      },
      "geometry": {
        "type": "Point",
        "coordinates": [
          -41.527994311499214,
          10.899967979333177
        ]
      }
    },
    {
      "type": "Feature",
      "properties": {
        "norad_id": 34325,
        "name": "COSMOS 2251 DEB",
        "group": "cosmos-2251-debris",
        "lat": -50.97920365094992,
        "lon": 50.37410707555894,
        "alt_km": 745.4959474467969,
        "timestamp": "2025-12-03T06:58:43.636030+00:00",
        "meta_object_name": "COSMOS 2251 DEB",
        "meta_object_id": "1993-036NX",
        "meta_epoch": "2025-12-02T18:12:55.504800",
        "meta_mean_motion": 14.04374276,
        "meta_eccentricity": 0.0193305,
        "meta_inclination": 73.8715,
        "meta_ra_of_asc_node": 210.3909,
        "meta_arg_of_pericenter": 229.6862,
        "meta_mean_anomaly": 196.3703,
        "meta_ephemeris_type": 0,
        "meta_classification_type": "U",
        "meta_norad_cat_id": 34325,
        "meta_element_set_no": 999,
        "meta_rev_at_epoch": 85375,
        "meta_bstar": 0.0020644,
        "meta_mean_motion_dot": 3.857e-05,
        "meta_mean_motion_ddot": 0,
        "tle_line1": "1 34325U 93036NX  25336.75897575  .00003857  00000+0  20644-2 0  9990",
        "tle_line2": "2 34325  73.8715 210.3909 0193305 229.6862 196.3703 14.04374276853755"
      },
      "geometry": {
        "type": "Point",
        "coordinates": [
          50.37410707555894,
          -50.97920365094992
        ]
      }
    },
    {
      "type": "Feature",
      "properties": {
        "norad_id": 34327,
        "name": "COSMOS 2251 DEB",
        "group": "cosmos-2251-debris",
        "lat": 51.61746751275319,
        "lon": -147.94360806378833,
        "alt_km": 580.6475345194976,
        "timestamp": "2025-12-03T06:58:43.636040+00:00",
        "meta_object_name": "COSMOS 2251 DEB",
        "meta_object_id": "1993-036NZ",
        "meta_epoch": "2025-12-02T16:29:31.829280",
        "meta_mean_motion": 14.88822829,
        "meta_eccentricity": 0.0032254,
        "meta_inclination": 73.9941,
        "meta_ra_of_asc_node": 192.0171,
        "meta_arg_of_pericenter": 10.4513,
        "meta_mean_anomaly": 50.1309,
        "meta_ephemeris_type": 0,
        "meta_classification_type": "U",
        "meta_norad_cat_id": 34327,
        "meta_element_set_no": 999,
        "meta_rev_at_epoch": 89358,
        "meta_bstar": 0.0014968,
        "meta_mean_motion_dot": 0.0001415,
        "meta_mean_motion_ddot": 0,
        "tle_line1": "1 34327U 93036NZ  25336.68717395  .00014150  00000+0  14968-2 0  9995",
        "tle_line2": "2 34327  73.9941 192.0171 0032254  10.4513  50.1309 14.88822829893588"
      },
      "geometry": {
        "type": "Point",
        "coordinates": [
          -147.94360806378833,
          51.61746751275319
        ]
      }
    }
  ]
}